{"type":"FeatureCollection","features":[{"type":"Feature","properties":{"name":"Hlavní město Praha"},"geometry":{"type":"MultiPolygon","coordinates":[[[[14.6046,50.1284],[14.5877,50.1452],[14.599,50.1541],[14.5632,50.1502],[14.5505,50.1661],[14.5342,50.1616],[14.5268,50.1774],[14.4669,50.1695],[14.4641,50.1599],[14.4281,50.1577],[14.3949,50.1414],[14.3657,50.148],[14.3541,50.1375],[14.3608,50.116],[14.3206,50.1152],[14.3159,50.1286],[14.3024,50.1301],[14.2881,50.1161],[14.2244,50.1029],[14.2501,50.1034],[14.2611,50.0871],[14.2894,50.0771],[14.2581,50.0715],[14.248,50.0585],[14.2716,50.0543],[14.2703,50.0397],[14.2867,50.0282],[14.3159,50.0236],[14.3115,50.007],[14.3008,50.0118],[14.2948,50.0022],[14.3181,49.9889],[14.3428,49.9906],[14.3268,49.9719],[14.3458,49.9748],[14.3449,49.9676],[14.3254,49.9572],[14.3429,49.9476],[14.388,49.9498],[14.3956,49.9419],[14.4006,49.9707],[14.4203,49.9636],[14.4446,49.9739],[14.4622,49.9708],[14.4663,49.981],[14.487,49.9857],[14.4839,49.9924],[14.53,50.0007],[14.521,50.0077],[14.5275,50.0108],[14.5683,50.0074],[14.5824,50.0164],[14.6103,49.9986],[14.6402,49.9944],[14.6469,49.9988],[14.6383,50.0058],[14.6618,50.0073],[14.6695,50.0188],[14.6569,50.0374],[14.6669,50.0385],[14.6539,50.0493],[14.644,50.0422],[14.6402,50.0569],[14.7,50.0721],[14.7051,50.0907],[14.6574,50.1065],[14.6591,50.1226],[14.6046,50.1284]]]]}},{"type":"Feature","properties":{"name":"Středočeský kraj"},"geometry":{"type":"MultiPolygon","coordinates":[[[[15.4973,49.9701],[15.461,49.9873],[15.474,49.9943],[15.4688,50.0069],[15.4594,49.9975],[15.4603,50.0102],[15.4245,50.0095],[15.4309,50.0168],[15.3939,50.0204],[15.3628,50.0411],[15.4026,50.0465],[15.3753,50.0557],[15.4126,50.0631],[15.4043,50.086],[15.428,50.0881],[15.3991,50.0955],[15.4139,50.1077],[15.4372,50.1017],[15.4324,50.1108],[15.448,50.1246],[15.4154,50.1405],[15.4033,50.135],[15.3819,50.1456],[15.3487,50.1448],[15.374,50.1558],[15.356,50.1661],[15.3781,50.1726],[15.3974,50.1979],[15.3913,50.2178],[15.3708,50.2267],[15.3672,50.2472],[15.3843,50.2549],[15.3749,50.2703],[15.3781,50.2847],[15.3558,50.2904],[15.3511,50.3009],[15.3069,50.2812],[15.2647,50.2943],[15.2321,50.287],[15.2062,50.2969],[15.2036,50.309],[15.2178,50.3181],[15.1929,50.3318],[15.181,50.3282],[15.1887,50.3399],[15.1291,50.3462],[15.1206,50.3593],[15.1314,50.3635],[15.1042,50.3761],[15.1179,50.3889],[15.1441,50.3876],[15.137,50.404],[15.1551,50.4075],[15.1623,50.4273],[15.1517,50.4285],[15.149,50.4467],[15.1296,50.4505],[15.1351,50.4723],[15.1447,50.4751],[15.128,50.48],[15.1343,50.4895],[15.1133,50.5052],[15.1468,50.5231],[15.0976,50.5346],[15.0952,50.5543],[15.0635,50.5713],[15.0394,50.5655],[15.0362,50.5805],[15.0168,50.5868],[15.0045,50.604],[14.977,50.6064],[14.968,50.592],[14.9578,50.5937],[14.924,50.6188],[14.908,50.6174],[14.9174,50.6068],[14.8953,50.6018],[14.9087,50.5865],[14.8471,50.572],[14.8593,50.5563],[14.8268,50.5385],[14.7504,50.5568],[14.754,50.5188],[14.7255,50.5199],[14.7191,50.4985],[14.6882,50.4917],[14.6923,50.4799],[14.6326,50.4872],[14.6102,50.4719],[14.5898,50.4737],[14.5751,50.4931],[14.5829,50.4984],[14.5783,50.5111],[14.549,50.5043],[14.5471,50.4958],[14.533,50.4974],[14.5239,50.5111],[14.5103,50.5096],[14.501,50.4919],[14.4693,50.5093],[14.474,50.4993],[14.4548,50.4965],[14.4705,50.4794],[14.4732,50.4493],[14.4235,50.4533],[14.4263,50.4399],[14.41,50.4309],[14.4224,50.4281],[14.4164,50.4207],[14.378,50.4361],[14.3598,50.4298],[14.3777,50.4105],[14.3632,50.4063],[14.3796,50.3951],[14.3775,50.376],[14.3672,50.3773],[14.3671,50.352],[14.2745,50.3547],[14.2506,50.3284],[14.1835,50.3452],[14.1817,50.3344],[14.1431,50.3307],[14.008,50.3464],[13.9815,50.3338],[13.9913,50.3037],[13.9523,50.3072],[13.957,50.2921],[13.9403,50.2801],[13.8778,50.2702],[13.8649,50.2594],[13.863,50.2436],[13.8398,50.2401],[13.8267,50.2607],[13.8123,50.2635],[13.7688,50.2322],[13.76,50.2406],[13.7514,50.2237],[13.6709,50.2226],[13.6695,50.2383],[13.6326,50.2087],[13.616,50.2109],[13.6227,50.2024],[13.6078,50.1918],[13.5356,50.189],[13.5129,50.1686],[13.4882,50.1661],[13.4944,50.1473],[13.4792,50.1434],[13.4928,50.128],[13.4698,50.1318],[13.4629,50.1055],[13.4297,50.1098],[13.4044,50.098],[13.4071,50.0817],[13.4257,50.0763],[13.4299,50.0609],[13.4138,50.0624],[13.3965,50.0366],[13.4346,50.0277],[13.4452,50.0416],[13.471,50.0427],[13.4873,50.0321],[13.5205,50.0406],[13.5374,50.0286],[13.5084,50.0312],[13.5012,50.0221],[13.5534,50.009],[13.5687,49.9945],[13.6564,50.0018],[13.6791,49.9777],[13.6982,49.9734],[13.6993,49.9619],[13.748,49.9661],[13.7508,49.9452],[13.7431,49.9405],[13.7828,49.9414],[13.8088,49.9272],[13.8332,49.9278],[13.8201,49.9231],[13.8183,49.9089],[13.8343,49.8677],[13.8083,49.8679],[13.8131,49.8536],[13.7975,49.8446],[13.8064,49.8366],[13.797,49.8297],[13.809,49.8124],[13.7891,49.8015],[13.7999,49.7815],[13.7816,49.7598],[13.813,49.7608],[13.8402,49.6962],[13.8238,49.6863],[13.8064,49.6929],[13.766,49.6592],[13.7632,49.648],[13.7734,49.6379],[13.7408,49.6222],[13.7539,49.6149],[13.7516,49.5959],[13.7389,49.5864],[13.7385,49.5615],[13.7455,49.5587],[13.737,49.5448],[13.7464,49.5525],[13.7649,49.5463],[13.7625,49.5376],[13.7724,49.5358],[13.7691,49.5111],[13.8088,49.5156],[13.8214,49.5273],[13.842,49.5107],[13.8662,49.5258],[13.8815,49.5227],[13.8813,49.5129],[13.9012,49.514],[13.8909,49.5073],[13.932,49.5013],[13.9494,49.5177],[13.9783,49.5117],[13.9858,49.5271],[14.0052,49.5226],[13.9984,49.5312],[14.0147,49.5398],[14.0098,49.5513],[14.0245,49.5488],[14.0389,49.5601],[14.0762,49.5564],[14.0666,49.5555],[14.064,49.5389],[14.0742,49.5295],[14.1016,49.5283],[14.1068,49.5371],[14.1071,49.5298],[14.1255,49.5281],[14.1219,49.5369],[14.2083,49.5317],[14.2269,49.5511],[14.2233,49.5597],[14.2659,49.5679],[14.2924,49.5593],[14.2927,49.547],[14.3345,49.5392],[14.3245,49.5279],[14.343,49.5325],[14.3546,49.5241],[14.3868,49.543],[14.4136,49.5368],[14.4048,49.5401],[14.4059,49.5578],[14.4279,49.5423],[14.4432,49.549],[14.4436,49.5411],[14.4669,49.5315],[14.4773,49.5461],[14.561,49.5311],[14.5893,49.5442],[14.5904,49.5337],[14.5735,49.5216],[14.6317,49.5193],[14.648,49.5031],[14.6564,49.5141],[14.6508,49.5194],[14.6938,49.5443],[14.738,49.549],[14.7195,49.5695],[14.734,49.5868],[14.7241,49.5925],[14.7464,49.5957],[14.743,49.6056],[14.7632,49.6098],[14.7663,49.6211],[14.7795,49.6047],[14.8138,49.6023],[14.8451,49.5761],[14.8565,49.5882],[14.8777,49.5869],[14.8702,49.5848],[14.8755,49.5726],[14.8831,49.5756],[14.8914,49.5532],[14.9095,49.5431],[14.9464,49.5567],[14.9356,49.5674],[14.9397,49.5799],[14.9933,49.5818],[14.969,49.5958],[14.9818,49.606],[15.0559,49.5941],[15.1175,49.6104],[15.112,49.6045],[15.1404,49.604],[15.1649,49.5889],[15.171,49.6141],[15.1806,49.61],[15.1888,49.6202],[15.2008,49.611],[15.2219,49.6124],[15.2499,49.6301],[15.2346,49.6653],[15.2075,49.6627],[15.1798,49.6763],[15.1818,49.7101],[15.2171,49.7259],[15.2149,49.7389],[15.2278,49.7423],[15.2202,49.748],[15.225,49.757],[15.2538,49.7631],[15.2498,49.7544],[15.2645,49.7509],[15.2995,49.7684],[15.3348,49.7753],[15.3465,49.7694],[15.3672,49.7757],[15.3822,49.7999],[15.4251,49.7925],[15.439,49.8043],[15.4187,49.8157],[15.4164,49.8277],[15.4464,49.8452],[15.4638,49.8382],[15.4743,49.851],[15.492,49.8501],[15.5011,49.8624],[15.4957,49.8704],[15.5047,49.8745],[15.4977,49.8979],[15.5205,49.9019],[15.5183,49.9115],[15.5355,49.9274],[15.5161,49.9412],[15.5309,49.9477],[15.5315,49.9617],[15.4973,49.9701]],[[14.6402,50.0569],[14.644,50.0422],[14.6539,50.0493],[14.6669,50.0385],[14.6561,50.031],[14.6695,50.0188],[14.6578,50.0043],[14.6383,50.0058],[14.6469,49.9988],[14.6402,49.9944],[14.6103,49.9986],[14.5824,50.0164],[14.5683,50.0074],[14.5275,50.0108],[14.521,50.0077],[14.53,50.0007],[14.4839,49.9924],[14.487,49.9857],[14.4663,49.981],[14.4622,49.9708],[14.4446,49.9739],[14.4203,49.9636],[14.4006,49.9707],[14.3956,49.9419],[14.388,49.9498],[14.3429,49.9476],[14.325,49.9579],[14.3449,49.9676],[14.3458,49.9748],[14.3268,49.9719],[14.3428,49.9906],[14.3181,49.9889],[14.2948,50.0022],[14.3008,50.0118],[14.3115,50.007],[14.3159,50.0236],[14.2867,50.0282],[14.2703,50.0397],[14.2716,50.0543],[14.248,50.0585],[14.2581,50.0715],[14.2894,50.0771],[14.2611,50.0871],[14.2501,50.1034],[14.2244,50.103],[14.2881,50.1161],[14.3024,50.1301],[14.3159,50.1286],[14.3206,50.1152],[14.3608,50.116],[14.3541,50.1375],[14.3657,50.148],[14.3949,50.1414],[14.4281,50.1577],[14.4641,50.1599],[14.4669,50.1695],[14.5325,50.1772],[14.5342,50.1616],[14.5505,50.1661],[14.5632,50.1502],[14.599,50.1541],[14.5877,50.1452],[14.6005,50.1295],[14.6591,50.1226],[14.6574,50.1065],[14.7051,50.0907],[14.7,50.0721],[14.6402,50.0569]]]]}},{"type":"Feature","properties":{"name":"Jihočeský kraj"},"geometry":{"type":"MultiPolygon","coordinates":[[[[15.0241,49.2937],[14.9912,49.275],[14.9778,49.2775],[14.9038,49.3331],[14.933,49.3563],[14.8882,49.3758],[14.9063,49.405],[14.9024,49.413],[14.9161,49.4249],[14.9002,49.428],[14.912,49.4306],[14.9125,49.4436],[14.9275,49.4564],[14.9301,49.468],[14.9175,49.4744],[14.9336,49.484],[14.9245,49.5039],[14.9013,49.5145],[14.9062,49.5223],[14.9437,49.5243],[14.9288,49.5415],[14.9324,49.5491],[14.9024,49.5444],[14.8831,49.5756],[14.8755,49.5726],[14.8702,49.5848],[14.8777,49.5869],[14.8565,49.5882],[14.8451,49.5761],[14.8138,49.6023],[14.7795,49.6047],[14.7674,49.6211],[14.7632,49.6098],[14.743,49.6056],[14.7455,49.5951],[14.7241,49.5925],[14.734,49.5868],[14.7195,49.5695],[14.738,49.549],[14.6938,49.5443],[14.6508,49.5194],[14.6564,49.5141],[14.648,49.5031],[14.6317,49.5193],[14.5735,49.5216],[14.5904,49.5337],[14.5893,49.5442],[14.561,49.5311],[14.4773,49.5461],[14.4669,49.5315],[14.4436,49.5411],[14.4432,49.549],[14.4279,49.5423],[14.4059,49.5578],[14.4048,49.5401],[14.4136,49.5368],[14.3868,49.543],[14.3546,49.5241],[14.343,49.5325],[14.3245,49.5279],[14.3345,49.5392],[14.2927,49.547],[14.2924,49.5593],[14.2659,49.5679],[14.2233,49.5597],[14.2269,49.5511],[14.2083,49.5317],[14.1219,49.5369],[14.1255,49.5281],[14.1071,49.5298],[14.1068,49.5371],[14.1016,49.5283],[14.0742,49.5295],[14.064,49.5389],[14.0666,49.5555],[14.0762,49.5564],[14.0389,49.5601],[14.0245,49.5488],[14.0098,49.5513],[14.0147,49.5398],[13.9984,49.5312],[14.0052,49.5226],[13.9858,49.5271],[13.9783,49.5117],[13.9494,49.5177],[13.932,49.5013],[13.8909,49.5073],[13.9012,49.514],[13.8813,49.5129],[13.8815,49.5227],[13.8676,49.5257],[13.8357,49.5107],[13.8205,49.5273],[13.8088,49.5156],[13.7911,49.5192],[13.7843,49.5089],[13.7622,49.5142],[13.7505,49.5067],[13.7583,49.4971],[13.7474,49.4955],[13.7478,49.4867],[13.7689,49.4828],[13.759,49.4811],[13.7689,49.4745],[13.7641,49.4526],[13.7906,49.4351],[13.7633,49.4223],[13.7586,49.3991],[13.7756,49.3814],[13.7714,49.376],[13.7915,49.3683],[13.7784,49.3556],[13.7856,49.3518],[13.7689,49.3413],[13.7701,49.3234],[13.7224,49.3108],[13.7249,49.2929],[13.736,49.2891],[13.7306,49.2799],[13.6984,49.2787],[13.7079,49.2579],[13.7335,49.2571],[13.7202,49.2514],[13.7267,49.2436],[13.7057,49.2457],[13.7101,49.2364],[13.6991,49.2388],[13.6888,49.2282],[13.7199,49.1949],[13.6917,49.1872],[13.6897,49.1599],[13.6591,49.1605],[13.6298,49.1357],[13.5888,49.1464],[13.6004,49.1417],[13.5895,49.1263],[13.5981,49.1087],[13.5794,49.1043],[13.5986,49.0888],[13.5941,49.0801],[13.6071,49.0645],[13.5876,49.0446],[13.571,49.051],[13.557,49.0382],[13.536,48.9857],[13.551,48.9787],[13.5509,48.9676],[13.5858,48.9681],[13.5903,48.953],[13.6102,48.9386],[13.6304,48.9479],[13.6225,48.9388],[13.6714,48.8801],[13.7169,48.8781],[13.738,48.886],[13.7644,48.8345],[13.7929,48.8301],[13.7881,48.8249],[13.815,48.7974],[13.8034,48.7808],[13.8132,48.774],[13.872,48.7683],[13.9559,48.7144],[14.0033,48.7086],[14.0342,48.677],[14.0594,48.6739],[14.0535,48.6529],[14.0242,48.6527],[14.0106,48.6397],[14.0288,48.6261],[14.0481,48.6274],[14.0421,48.6129],[14.0542,48.6041],[14.069,48.607],[14.0669,48.5949],[14.0971,48.5998],[14.0956,48.5922],[14.1159,48.5892],[14.1302,48.5978],[14.1947,48.5927],[14.2406,48.5776],[14.2715,48.5814],[14.3243,48.5642],[14.3332,48.5518],[14.3576,48.5746],[14.3881,48.5719],[14.3936,48.5788],[14.3862,48.5927],[14.4314,48.5891],[14.456,48.625],[14.4438,48.6434],[14.4701,48.6485],[14.5031,48.6174],[14.5466,48.6146],[14.5621,48.6033],[14.6106,48.6281],[14.6273,48.604],[14.6538,48.6043],[14.6635,48.582],[14.7013,48.5826],[14.7211,48.6024],[14.7141,48.6174],[14.7222,48.6384],[14.7123,48.6501],[14.727,48.6871],[14.8081,48.7339],[14.8005,48.7474],[14.8115,48.7615],[14.8087,48.7788],[14.8801,48.7803],[14.8881,48.7701],[14.9557,48.7581],[14.9795,48.7723],[14.9532,48.7952],[14.9684,48.8371],[14.9845,48.8424],[14.9734,48.8531],[14.9729,48.8747],[14.9838,48.8747],[14.9929,48.904],[14.979,48.928],[14.9865,48.936],[14.9762,48.971],[14.9978,48.992],[14.9959,49.0151],[15.0587,49.0155],[15.0648,48.9996],[15.1563,48.9933],[15.1511,48.9809],[15.1698,48.9623],[15.1554,48.9461],[15.1602,48.9417],[15.1893,48.943],[15.2244,48.9601],[15.2616,48.9536],[15.2815,48.9796],[15.2785,48.9947],[15.3057,48.9779],[15.3533,48.9841],[15.4247,48.9516],[15.4559,48.9453],[15.4685,48.9518],[15.502,48.936],[15.5117,48.915],[15.5424,48.9077],[15.5496,48.9239],[15.5698,48.9277],[15.5581,48.9294],[15.5692,48.9319],[15.5674,48.942],[15.5796,48.9385],[15.587,48.9468],[15.5734,48.9564],[15.5799,48.9659],[15.5234,48.9761],[15.5284,48.9949],[15.5083,48.9986],[15.4951,48.9892],[15.4873,48.9968],[15.5092,49.0174],[15.5337,49.0254],[15.5249,49.037],[15.5458,49.0425],[15.5405,49.0598],[15.5552,49.0611],[15.5532,49.0771],[15.5978,49.0765],[15.59,49.0845],[15.6039,49.0886],[15.582,49.0983],[15.5902,49.1044],[15.5747,49.102],[15.5497,49.1148],[15.5701,49.1166],[15.5675,49.1289],[15.5524,49.1254],[15.5546,49.1314],[15.5367,49.1355],[15.5359,49.1247],[15.5156,49.1313],[15.5028,49.1192],[15.4684,49.1196],[15.4413,49.133],[15.4238,49.1176],[15.3372,49.1668],[15.3509,49.1925],[15.3415,49.2183],[15.2655,49.2147],[15.2531,49.2065],[15.2573,49.2177],[15.2057,49.226],[15.1915,49.2365],[15.1665,49.216],[15.1393,49.2211],[15.1235,49.2479],[15.0991,49.2408],[15.075,49.2519],[15.1008,49.249],[15.1041,49.2699],[15.0625,49.2721],[15.0354,49.2945],[15.0241,49.2937]]]]}},{"type":"Feature","properties":{"name":"Plzeňský kraj"},"geometry":{"type":"MultiPolygon","coordinates":[[[[12.5807,49.9034],[12.5507,49.9053],[12.5216,49.8817],[12.5121,49.8594],[12.4979,49.8569],[12.498,49.8375],[12.476,49.8373],[12.4734,49.8151],[12.464,49.8101],[12.4727,49.7861],[12.4048,49.7628],[12.4006,49.7538],[12.4423,49.7039],[12.4914,49.686],[12.5218,49.6867],[12.53,49.6661],[12.5172,49.6454],[12.5286,49.64],[12.5239,49.6277],[12.5343,49.6261],[12.5281,49.6181],[12.5607,49.6196],[12.564,49.597],[12.5767,49.5863],[12.5743,49.5591],[12.5949,49.5417],[12.5885,49.5385],[12.6213,49.5265],[12.6361,49.532],[12.6442,49.523],[12.6442,49.4849],[12.6336,49.4762],[12.653,49.4603],[12.6557,49.4347],[12.7087,49.4248],[12.7577,49.3948],[12.7581,49.3752],[12.7813,49.3604],[12.7787,49.3482],[12.7858,49.3455],[12.8435,49.3451],[12.8868,49.3323],[12.8798,49.349],[12.8888,49.3509],[12.9726,49.3339],[13.0074,49.3059],[13.0291,49.3043],[13.0255,49.2788],[13.034,49.2639],[13.0553,49.2639],[13.0602,49.2503],[13.081,49.2473],[13.0863,49.229],[13.1142,49.2183],[13.1099,49.2031],[13.1709,49.1736],[13.1769,49.1642],[13.1703,49.144],[13.1828,49.1345],[13.2361,49.1137],[13.2892,49.1186],[13.3974,49.0507],[13.3917,49.0421],[13.4094,49.0032],[13.4027,48.9872],[13.4964,48.9414],[13.5083,48.9421],[13.5071,48.9691],[13.5509,48.9676],[13.551,48.9787],[13.536,48.9857],[13.5466,49.0056],[13.5432,49.0179],[13.571,49.051],[13.5876,49.0446],[13.6071,49.0645],[13.5941,49.0801],[13.5986,49.0888],[13.5794,49.1043],[13.5981,49.1087],[13.5895,49.1263],[13.6004,49.1417],[13.5888,49.1464],[13.6298,49.1357],[13.6591,49.1605],[13.694,49.1638],[13.6845,49.1652],[13.6939,49.1692],[13.6917,49.1872],[13.7199,49.1949],[13.6888,49.2282],[13.6991,49.2388],[13.7101,49.2364],[13.7057,49.2457],[13.7267,49.2436],[13.7202,49.2514],[13.7335,49.2566],[13.7079,49.2579],[13.6984,49.2787],[13.7306,49.2799],[13.736,49.2891],[13.7249,49.2929],[13.7224,49.3108],[13.7701,49.3234],[13.7693,49.3421],[13.7906,49.3636],[13.7586,49.3991],[13.7633,49.4223],[13.7906,49.4351],[13.7641,49.4526],[13.7689,49.4745],[13.759,49.4811],[13.7689,49.4828],[13.7478,49.4867],[13.7474,49.4955],[13.7583,49.4971],[13.7505,49.5067],[13.7657,49.5139],[13.7724,49.5358],[13.7485,49.5524],[13.737,49.5448],[13.7455,49.5587],[13.7385,49.5615],[13.7389,49.5864],[13.7516,49.5959],[13.7539,49.6149],[13.7408,49.6222],[13.7734,49.6379],[13.7638,49.6546],[13.7757,49.6715],[13.7915,49.6747],[13.7872,49.6815],[13.8402,49.6962],[13.813,49.7608],[13.7816,49.7598],[13.7999,49.7815],[13.7891,49.8015],[13.809,49.8124],[13.797,49.8297],[13.8064,49.8366],[13.7975,49.8446],[13.8131,49.8536],[13.8083,49.8679],[13.8343,49.8677],[13.8183,49.9089],[13.8201,49.9231],[13.8332,49.9278],[13.8088,49.9272],[13.7828,49.9414],[13.7431,49.9405],[13.7508,49.9452],[13.748,49.9661],[13.6993,49.9619],[13.6982,49.9734],[13.6791,49.9777],[13.6564,50.0018],[13.5687,49.9945],[13.5534,50.009],[13.5012,50.0221],[13.5084,50.0312],[13.5374,50.0286],[13.5205,50.0406],[13.4873,50.0321],[13.471,50.0427],[13.4452,50.0416],[13.4346,50.0277],[13.3998,50.0319],[13.4138,50.0624],[13.4299,50.0609],[13.4279,50.0741],[13.4098,50.0792],[13.4053,50.0902],[13.3721,50.0769],[13.3708,50.0909],[13.3553,50.0943],[13.3548,50.1044],[13.3337,50.0866],[13.324,50.0874],[13.3247,50.1034],[13.282,50.0992],[13.2911,50.0924],[13.2769,50.0766],[13.2991,50.0703],[13.2916,50.0595],[13.2761,50.0619],[13.2798,50.0521],[13.2308,50.0492],[13.2424,50.0257],[13.2293,50.0134],[13.2315,49.9959],[13.2061,49.9999],[13.1857,50.0173],[13.1806,50.0101],[13.1604,50.0259],[13.1194,50.0225],[13.0969,50.0351],[13.0807,50.0255],[13.084,50.0184],[13.0697,50.0187],[13.0685,50.0092],[13.0536,50.0099],[13.0186,49.9867],[13.0001,49.9892],[13.0004,49.9779],[12.9599,49.9758],[12.9565,49.9678],[12.9695,49.9585],[12.9586,49.95],[12.9667,49.9436],[12.9255,49.9266],[12.9282,49.9208],[12.8941,49.9344],[12.853,49.924],[12.8395,49.9343],[12.7924,49.941],[12.7756,49.9273],[12.7649,49.935],[12.7299,49.923],[12.7029,49.9259],[12.7128,49.9123],[12.6735,49.9081],[12.683,49.8915],[12.6703,49.8918],[12.6652,49.9107],[12.6479,49.9162],[12.614,49.9101],[12.6116,49.8985],[12.5948,49.8928],[12.5807,49.9034]]]]}},{"type":"Feature","properties":{"name":"Karlovarský kraj"},"geometry":{"type":"MultiPolygon","coordinates":[[[[12.5807,49.9034],[12.5948,49.8928],[12.6116,49.8985],[12.614,49.9101],[12.6479,49.9162],[12.6652,49.9107],[12.6703,49.8918],[12.683,49.8915],[12.6735,49.9081],[12.7128,49.9123],[12.7029,49.9259],[12.7299,49.923],[12.7649,49.935],[12.7756,49.9273],[12.7924,49.941],[12.8395,49.9343],[12.853,49.924],[12.8941,49.9344],[12.9282,49.9208],[12.9255,49.9266],[12.9667,49.9436],[12.9586,49.95],[12.9695,49.9585],[12.9565,49.9678],[12.9599,49.9758],[13.0004,49.9779],[13.0001,49.9892],[13.0186,49.9867],[13.0536,50.0099],[13.0685,50.0092],[13.0697,50.0187],[13.084,50.0184],[13.0807,50.0255],[13.0969,50.0351],[13.1194,50.0225],[13.1604,50.0259],[13.1806,50.0101],[13.1857,50.0173],[13.2061,49.9999],[13.2334,49.9966],[13.2293,50.0134],[13.2424,50.0257],[13.2308,50.0492],[13.2521,50.0456],[13.2803,50.0523],[13.2761,50.0619],[13.2929,50.0602],[13.2974,50.0745],[13.2769,50.0766],[13.2911,50.0924],[13.2817,50.0983],[13.3018,50.0993],[13.2739,50.1281],[13.2489,50.124],[13.2281,50.134],[13.2508,50.1464],[13.284,50.1366],[13.2649,50.1574],[13.2841,50.1564],[13.2871,50.1681],[13.2739,50.1686],[13.2744,50.1856],[13.2502,50.1954],[13.249,50.2064],[13.2119,50.2161],[13.2505,50.2204],[13.2555,50.2291],[13.2233,50.2396],[13.2379,50.248],[13.2333,50.2727],[13.2148,50.273],[13.221,50.2821],[13.1992,50.2798],[13.2344,50.2965],[13.2206,50.313],[13.2362,50.3215],[13.2375,50.336],[13.2077,50.3544],[13.2092,50.3615],[13.1842,50.3493],[13.1335,50.36],[13.1148,50.3452],[13.1098,50.3543],[13.0931,50.3547],[13.1087,50.3721],[13.0972,50.3825],[13.0807,50.3804],[13.0696,50.3896],[13.0443,50.3841],[13.0215,50.3957],[12.9743,50.3893],[12.9641,50.4009],[12.819,50.4603],[12.8067,50.4434],[12.8105,50.4309],[12.7949,50.4494],[12.7345,50.4324],[12.7078,50.4083],[12.7071,50.3971],[12.6733,50.4168],[12.512,50.3973],[12.4862,50.3704],[12.4896,50.3498],[12.4684,50.3546],[12.442,50.3417],[12.431,50.3227],[12.3984,50.3214],[12.3993,50.2932],[12.3711,50.2854],[12.3526,50.2627],[12.3592,50.2421],[12.3313,50.2425],[12.3348,50.2177],[12.3267,50.2185],[12.3233,50.2073],[12.3383,50.1923],[12.3235,50.1814],[12.3322,50.1713],[12.2894,50.1769],[12.2747,50.1967],[12.288,50.2031],[12.2825,50.2131],[12.2939,50.2211],[12.2394,50.2462],[12.2469,50.2572],[12.2659,50.2502],[12.2539,50.271],[12.2013,50.2728],[12.2009,50.3091],[12.1868,50.3117],[12.1846,50.3222],[12.125,50.3152],[12.1047,50.3217],[12.1261,50.3072],[12.1229,50.2907],[12.1401,50.2778],[12.0906,50.2523],[12.1269,50.2324],[12.1511,50.2357],[12.1454,50.2304],[12.162,50.2235],[12.1597,50.2112],[12.1754,50.2128],[12.1827,50.1992],[12.1972,50.199],[12.1889,50.1954],[12.216,50.1682],[12.1952,50.1432],[12.2009,50.1086],[12.2287,50.1024],[12.2314,50.0943],[12.2467,50.0975],[12.2754,50.0765],[12.2616,50.0581],[12.3173,50.0534],[12.3259,50.0328],[12.3399,50.0393],[12.3675,50.0174],[12.4316,50.0025],[12.4315,49.9844],[12.4607,49.9949],[12.4766,49.9807],[12.49,49.9816],[12.4996,49.972],[12.47,49.9483],[12.4783,49.9355],[12.5408,49.9243],[12.5508,49.9052],[12.5807,49.9034]]]]}},{"type":"Feature","properties":{"name":"Ústecký kraj"},"geometry":{"type":"MultiPolygon","coordinates":[[[[14.3645,50.6339],[14.3626,50.6567],[14.3429,50.658],[14.3428,50.6674],[14.379,50.6908],[14.3669,50.7],[14.3762,50.7208],[14.4032,50.7258],[14.4146,50.7399],[14.4165,50.7315],[14.4312,50.7364],[14.4168,50.7414],[14.4276,50.7667],[14.4582,50.7785],[14.4482,50.7845],[14.4589,50.7927],[14.4485,50.7959],[14.4563,50.8059],[14.4429,50.8112],[14.4838,50.8161],[14.4778,50.8089],[14.4942,50.8116],[14.5257,50.7953],[14.5607,50.7998],[14.5669,50.8377],[14.6083,50.8433],[14.6364,50.8975],[14.6528,50.9054],[14.6523,50.9259],[14.6448,50.9316],[14.5819,50.9135],[14.5649,50.9182],[14.5607,50.9254],[14.5962,50.9627],[14.5991,50.9872],[14.5646,51.0102],[14.5348,51.0037],[14.5398,51.0104],[14.5322,51.0166],[14.4986,51.0221],[14.5086,51.0427],[14.5002,51.0466],[14.4908,51.0436],[14.4927,51.0234],[14.4536,51.0359],[14.4086,51.0188],[14.3848,51.027],[14.3827,51.0385],[14.362,51.0453],[14.3368,51.039],[14.3171,51.0553],[14.3021,51.0551],[14.2887,51.0393],[14.2739,51.0398],[14.2864,51.0275],[14.2809,51.0146],[14.2605,51.0088],[14.2687,50.9998],[14.2587,50.9875],[14.2857,50.9769],[14.3235,50.9854],[14.3282,50.9731],[14.3026,50.9653],[14.3171,50.9605],[14.3114,50.954],[14.3969,50.9364],[14.4022,50.9238],[14.3856,50.9165],[14.3881,50.8992],[14.3491,50.9008],[14.3491,50.8927],[14.3047,50.8839],[14.2674,50.8953],[14.2334,50.8876],[14.2362,50.8769],[14.2235,50.8591],[14.0898,50.8262],[14.0779,50.8123],[14.0294,50.8043],[13.9905,50.82],[13.9544,50.8076],[13.939,50.7899],[13.9008,50.7934],[13.8873,50.7701],[13.9028,50.753],[13.8988,50.7451],[13.8804,50.7377],[13.862,50.7428],[13.8549,50.7269],[13.7583,50.7358],[13.7412,50.7273],[13.7281,50.7337],[13.7067,50.7167],[13.6643,50.7321],[13.6019,50.71],[13.552,50.7138],[13.5252,50.7044],[13.5444,50.6774],[13.5128,50.6538],[13.5259,50.6494],[13.5243,50.639],[13.4976,50.632],[13.4648,50.6017],[13.415,50.6165],[13.3919,50.6466],[13.3711,50.6508],[13.3774,50.6274],[13.3248,50.6085],[13.323,50.581],[13.2911,50.5749],[13.2787,50.593],[13.2484,50.5921],[13.223,50.5634],[13.2295,50.5502],[13.1951,50.5161],[13.1953,50.5032],[13.1366,50.5064],[13.1326,50.5186],[13.0855,50.5002],[13.0317,50.5098],[13.02,50.4467],[12.9851,50.4203],[12.9403,50.4083],[12.9743,50.3893],[13.0215,50.3957],[13.0443,50.3841],[13.0696,50.3896],[13.0807,50.3804],[13.0972,50.3825],[13.1087,50.3721],[13.0931,50.3547],[13.1098,50.3543],[13.1148,50.3452],[13.1335,50.36],[13.1842,50.3493],[13.2092,50.3615],[13.2077,50.3544],[13.2221,50.3525],[13.2377,50.3355],[13.2362,50.3215],[13.2206,50.313],[13.2344,50.2965],[13.1992,50.2798],[13.221,50.2821],[13.2148,50.273],[13.2333,50.2727],[13.2379,50.248],[13.2233,50.2396],[13.2555,50.2291],[13.2505,50.2204],[13.2119,50.2161],[13.249,50.2064],[13.2502,50.1954],[13.2744,50.1856],[13.2739,50.1686],[13.2871,50.1681],[13.2841,50.1564],[13.2649,50.1574],[13.284,50.1366],[13.2508,50.1464],[13.2281,50.134],[13.2489,50.124],[13.2739,50.1281],[13.2898,50.1181],[13.282,50.1143],[13.2965,50.1125],[13.297,50.0994],[13.3247,50.1034],[13.324,50.0874],[13.3571,50.1043],[13.3517,50.1004],[13.3708,50.0909],[13.3712,50.0773],[13.3953,50.0804],[13.4091,50.0926],[13.4044,50.098],[13.4254,50.1092],[13.4629,50.1055],[13.4707,50.1324],[13.4928,50.128],[13.4792,50.1434],[13.4944,50.1473],[13.4882,50.1661],[13.5129,50.1686],[13.5356,50.189],[13.6078,50.1918],[13.6227,50.2024],[13.616,50.2109],[13.6326,50.2087],[13.6695,50.2383],[13.6709,50.2226],[13.7514,50.2237],[13.76,50.2406],[13.7688,50.2322],[13.8123,50.2635],[13.8267,50.2607],[13.8398,50.2401],[13.863,50.2436],[13.8649,50.2594],[13.8778,50.2702],[13.9403,50.2801],[13.957,50.2921],[13.9523,50.3072],[13.9913,50.3037],[13.9815,50.3338],[14.0076,50.3463],[14.1431,50.3307],[14.1817,50.3344],[14.1835,50.3452],[14.2506,50.3284],[14.2745,50.3547],[14.3671,50.352],[14.3672,50.3773],[14.3775,50.376],[14.3796,50.3951],[14.3632,50.4063],[14.3777,50.4105],[14.3598,50.4298],[14.378,50.4361],[14.4164,50.4207],[14.4224,50.4281],[14.41,50.4309],[14.4263,50.4399],[14.4235,50.4533],[14.4732,50.4493],[14.4705,50.4794],[14.4548,50.4965],[14.474,50.4993],[14.4693,50.5093],[14.4872,50.5058],[14.4704,50.5267],[14.4398,50.5301],[14.4055,50.5874],[14.3801,50.6009],[14.3789,50.6141],[14.359,50.6283],[14.3645,50.6339]]]]}},{"type":"Feature","properties":{"name":"Liberecký kraj"},"geometry":{"type":"MultiPolygon","coordinates":[[[[14.3645,50.6339],[14.359,50.6283],[14.3789,50.6141],[14.3801,50.6009],[14.4055,50.5874],[14.4399,50.53],[14.4731,50.5252],[14.501,50.4919],[14.5103,50.5096],[14.5239,50.5111],[14.533,50.4974],[14.5471,50.4958],[14.549,50.5043],[14.5783,50.5111],[14.5819,50.4803],[14.6102,50.4719],[14.6326,50.4872],[14.6923,50.4799],[14.6882,50.4917],[14.7191,50.4985],[14.7255,50.5199],[14.754,50.5188],[14.7504,50.5568],[14.8268,50.5385],[14.8593,50.5563],[14.8471,50.572],[14.9087,50.5865],[14.8953,50.6018],[14.9174,50.6068],[14.912,50.6189],[14.9325,50.6172],[14.9307,50.6073],[14.9498,50.6066],[14.9568,50.5991],[14.9454,50.5987],[14.968,50.592],[14.977,50.6064],[15.0045,50.604],[15.0168,50.5868],[15.0362,50.5805],[15.0394,50.5655],[15.0635,50.5713],[15.0952,50.5543],[15.0976,50.5346],[15.1389,50.5278],[15.1474,50.5169],[15.2229,50.4942],[15.2416,50.4976],[15.2381,50.507],[15.2658,50.5256],[15.3131,50.5107],[15.3298,50.5153],[15.3678,50.4948],[15.3795,50.5086],[15.3917,50.4916],[15.3791,50.4912],[15.3902,50.4808],[15.4278,50.4821],[15.4231,50.4896],[15.4406,50.4866],[15.4539,50.5012],[15.4425,50.5033],[15.4365,50.5217],[15.4647,50.5261],[15.466,50.5354],[15.48,50.5326],[15.478,50.547],[15.4985,50.5412],[15.495,50.5328],[15.5136,50.5176],[15.5364,50.5131],[15.5626,50.5268],[15.5818,50.5229],[15.5831,50.5136],[15.6326,50.5247],[15.6041,50.5562],[15.5905,50.5587],[15.6014,50.5579],[15.5861,50.5676],[15.5942,50.574],[15.5711,50.5812],[15.6021,50.6144],[15.5651,50.6373],[15.5838,50.6526],[15.5615,50.6823],[15.5655,50.708],[15.5586,50.7122],[15.5736,50.7354],[15.5691,50.7439],[15.5393,50.7575],[15.5352,50.7794],[15.4401,50.809],[15.4212,50.8035],[15.3941,50.7765],[15.3737,50.7781],[15.3662,50.8021],[15.3761,50.8211],[15.3673,50.838],[15.3537,50.8514],[15.3118,50.8602],[15.2771,50.891],[15.2678,50.9325],[15.2922,50.953],[15.2739,50.9629],[15.2741,50.9795],[15.2485,50.9797],[15.2366,50.9987],[15.1799,50.983],[15.1713,50.9865],[15.1718,51.02],[15.1444,51.0134],[15.1331,50.9939],[15.1421,50.9913],[15.129,50.9901],[15.1051,50.9914],[15.0968,51.0031],[15.1067,51.0104],[15.061,51.0229],[15.0557,51.012],[15.0234,51.0232],[14.9854,51.0108],[14.9682,50.99],[14.9889,50.978],[15.0059,50.9866],[15.0217,50.9671],[15.0107,50.963],[15.0143,50.9398],[14.9895,50.9217],[15.0068,50.9072],[14.994,50.8919],[15.0019,50.8688],[14.9593,50.8619],[14.9017,50.8759],[14.8973,50.8674],[14.8739,50.8772],[14.8554,50.8687],[14.8296,50.8728],[14.7997,50.8226],[14.7665,50.8192],[14.7447,50.8295],[14.7173,50.8233],[14.7201,50.8323],[14.7086,50.8408],[14.69,50.838],[14.6189,50.8578],[14.605,50.8415],[14.5673,50.8382],[14.5607,50.7998],[14.5409,50.7942],[14.4942,50.8116],[14.4783,50.8087],[14.4838,50.8161],[14.4429,50.8112],[14.4563,50.8059],[14.4485,50.7959],[14.4589,50.7927],[14.4482,50.7845],[14.4582,50.7785],[14.4276,50.7667],[14.4168,50.7414],[14.4312,50.7364],[14.4165,50.7315],[14.4146,50.7399],[14.4032,50.7258],[14.3762,50.7208],[14.3669,50.7],[14.379,50.6908],[14.3428,50.6674],[14.3429,50.658],[14.3626,50.6567],[14.3645,50.6339]]]]}},{"type":"Feature","properties":{"name":"Královéhradecký kraj"},"geometry":{"type":"MultiPolygon","coordinates":[[[[15.7709,50.1728],[15.8043,50.168],[15.8043,50.1405],[15.8345,50.1317],[15.8526,50.1477],[15.8873,50.1471],[15.8878,50.1625],[15.9164,50.1636],[15.917,50.1707],[15.9412,50.1602],[15.9922,50.1574],[15.9922,50.1461],[16.0095,50.146],[16.0096,50.1126],[16.0634,50.1128],[16.0751,50.0865],[16.1117,50.0846],[16.1391,50.0628],[16.1751,50.0594],[16.197,50.0384],[16.2304,50.0422],[16.2423,50.0557],[16.2513,50.0527],[16.2477,50.0426],[16.2822,50.0514],[16.3327,50.0403],[16.3121,50.0608],[16.3574,50.0776],[16.3402,50.092],[16.3746,50.1008],[16.3939,50.1182],[16.4076,50.1145],[16.4303,50.1208],[16.4228,50.1261],[16.4349,50.1307],[16.4723,50.1369],[16.4811,50.1646],[16.5057,50.1649],[16.5693,50.1387],[16.5855,50.152],[16.5606,50.1647],[16.5638,50.18],[16.5544,50.1965],[16.5617,50.2076],[16.5483,50.2298],[16.4897,50.2642],[16.4313,50.3247],[16.3993,50.3192],[16.3832,50.3288],[16.3622,50.3497],[16.368,50.367],[16.3608,50.3795],[16.306,50.3828],[16.2786,50.3674],[16.2631,50.3936],[16.2475,50.396],[16.2529,50.4056],[16.2381,50.4141],[16.2147,50.409],[16.21,50.4266],[16.1957,50.4321],[16.2133,50.4518],[16.2319,50.4435],[16.2204,50.4579],[16.2557,50.4676],[16.249,50.4732],[16.2587,50.4802],[16.2941,50.4792],[16.3124,50.4941],[16.3114,50.5061],[16.3438,50.4958],[16.3604,50.5012],[16.4018,50.5299],[16.3874,50.5421],[16.411,50.548],[16.4046,50.5693],[16.4449,50.5796],[16.423,50.6063],[16.3942,50.6189],[16.3641,50.6475],[16.3506,50.6483],[16.3431,50.6615],[16.2841,50.6604],[16.28,50.6681],[16.2348,50.6716],[16.2174,50.6333],[16.1842,50.6272],[16.1704,50.6453],[16.1037,50.6634],[16.0676,50.6398],[16.0561,50.6097],[16.0426,50.6142],[16.0248,50.5986],[15.9864,50.6135],[16.0218,50.6302],[16.0009,50.6448],[16.0045,50.6576],[15.9909,50.6834],[15.9612,50.6919],[15.8848,50.6713],[15.8612,50.6744],[15.8511,50.7082],[15.8299,50.7244],[15.8319,50.7428],[15.8162,50.7553],[15.7792,50.7423],[15.7057,50.7373],[15.6803,50.7547],[15.6049,50.776],[15.5457,50.7805],[15.5352,50.7794],[15.5379,50.7591],[15.5736,50.736],[15.5587,50.7127],[15.5655,50.708],[15.5615,50.6823],[15.5838,50.6526],[15.5651,50.6373],[15.6021,50.6144],[15.5711,50.5812],[15.5942,50.574],[15.5861,50.5676],[15.6014,50.5579],[15.5905,50.5587],[15.6041,50.5562],[15.6322,50.5227],[15.5831,50.5136],[15.5818,50.5229],[15.5626,50.5268],[15.5364,50.5131],[15.5136,50.5176],[15.495,50.5328],[15.4985,50.5412],[15.478,50.547],[15.48,50.5326],[15.466,50.5354],[15.4647,50.5261],[15.4365,50.5217],[15.4425,50.5033],[15.4539,50.5012],[15.4415,50.4871],[15.4303,50.4923],[15.4231,50.4896],[15.4278,50.4821],[15.3924,50.4798],[15.3791,50.4912],[15.3917,50.4916],[15.3795,50.5086],[15.3678,50.4948],[15.3298,50.5153],[15.3131,50.5107],[15.2658,50.5256],[15.2381,50.507],[15.2416,50.4976],[15.2229,50.4942],[15.1455,50.5225],[15.1135,50.5034],[15.1343,50.4895],[15.128,50.48],[15.1447,50.4751],[15.1351,50.4723],[15.1296,50.4505],[15.149,50.4467],[15.1517,50.4285],[15.1623,50.4272],[15.1551,50.4075],[15.137,50.404],[15.1441,50.3876],[15.1179,50.3889],[15.1042,50.3761],[15.1314,50.3635],[15.1206,50.3593],[15.1298,50.3458],[15.1887,50.3399],[15.181,50.3282],[15.1929,50.3318],[15.2178,50.3181],[15.2036,50.309],[15.2062,50.2969],[15.2321,50.287],[15.2647,50.2943],[15.3069,50.2812],[15.3511,50.3009],[15.3558,50.2904],[15.3781,50.2847],[15.3749,50.2703],[15.3843,50.2549],[15.3672,50.2472],[15.3708,50.2267],[15.3913,50.2178],[15.3974,50.1979],[15.3781,50.1726],[15.356,50.1661],[15.374,50.1558],[15.3487,50.1448],[15.3819,50.1456],[15.4033,50.135],[15.4154,50.1405],[15.448,50.1246],[15.4349,50.1152],[15.4521,50.0953],[15.4958,50.1104],[15.489,50.1144],[15.5222,50.1166],[15.5214,50.135],[15.5534,50.1355],[15.571,50.1426],[15.5665,50.15],[15.5807,50.1475],[15.5864,50.1333],[15.603,50.1333],[15.5994,50.14],[15.6463,50.1328],[15.6484,50.1405],[15.6897,50.1257],[15.7053,50.1392],[15.727,50.1338],[15.7405,50.1436],[15.7404,50.1611],[15.7709,50.1728]]]]}},{"type":"Feature","properties":{"name":"Pardubický kraj"},"geometry":{"type":"MultiPolygon","coordinates":[[[[15.7709,50.1728],[15.7404,50.1611],[15.7405,50.1436],[15.727,50.1338],[15.7053,50.1392],[15.6897,50.1257],[15.6484,50.1405],[15.6463,50.1328],[15.5994,50.14],[15.603,50.1333],[15.5864,50.1333],[15.57,50.1504],[15.571,50.1426],[15.5509,50.1347],[15.5395,50.141],[15.5214,50.135],[15.5222,50.1166],[15.489,50.1144],[15.4958,50.1104],[15.4703,50.0997],[15.4521,50.0953],[15.439,50.1095],[15.4255,50.0992],[15.4139,50.1077],[15.3991,50.0955],[15.428,50.0881],[15.4043,50.086],[15.4126,50.0631],[15.3753,50.0557],[15.4026,50.0465],[15.3628,50.0411],[15.3939,50.0204],[15.4309,50.0168],[15.4245,50.0095],[15.4603,50.0102],[15.4594,49.9975],[15.4688,50.0069],[15.474,49.9943],[15.4615,49.9869],[15.5315,49.9617],[15.5309,49.9477],[15.5161,49.9412],[15.5355,49.9274],[15.5183,49.9115],[15.5205,49.9019],[15.4977,49.8979],[15.5053,49.8833],[15.4971,49.8611],[15.5749,49.8289],[15.5772,49.8201],[15.5917,49.8182],[15.5908,49.8092],[15.6392,49.8158],[15.6412,49.8059],[15.6535,49.807],[15.6621,49.8168],[15.6857,49.8108],[15.6892,49.8014],[15.7087,49.8042],[15.7384,49.7793],[15.7816,49.7804],[15.775,49.7557],[15.8064,49.7589],[15.851,49.7366],[15.8635,49.7446],[15.8656,49.7327],[15.8487,49.7185],[15.8701,49.7026],[15.9054,49.6984],[15.919,49.6852],[15.9599,49.6913],[15.9536,49.7024],[15.9692,49.7007],[15.9723,49.7196],[15.9961,49.7382],[16.0096,49.738],[16.0162,49.719],[16.0752,49.7118],[16.1022,49.6836],[16.1395,49.6914],[16.1509,49.6782],[16.1934,49.6784],[16.2057,49.6662],[16.2422,49.66],[16.2748,49.6401],[16.2698,49.6297],[16.2871,49.6199],[16.3481,49.6131],[16.4061,49.5721],[16.4203,49.5853],[16.4171,49.5949],[16.4357,49.5986],[16.451,49.5966],[16.4459,49.5873],[16.4873,49.6],[16.5408,49.59],[16.5554,49.6308],[16.6036,49.6213],[16.6217,49.6333],[16.6506,49.6187],[16.6701,49.6232],[16.6652,49.6283],[16.6965,49.6264],[16.7821,49.596],[16.8052,49.5991],[16.8108,49.6271],[16.822,49.6233],[16.8004,49.6392],[16.8038,49.6565],[16.8458,49.6807],[16.8483,49.7027],[16.8399,49.7059],[16.8475,49.7161],[16.8309,49.7295],[16.7887,49.7292],[16.813,49.7485],[16.792,49.759],[16.8013,49.7727],[16.7662,49.7914],[16.7558,49.8052],[16.7606,49.8183],[16.736,49.8309],[16.7415,49.864],[16.7691,49.8744],[16.7501,49.8939],[16.7567,49.92],[16.7459,49.9248],[16.7507,49.9316],[16.7316,49.951],[16.7353,49.9681],[16.712,49.9995],[16.7487,49.9947],[16.7683,50.0071],[16.7668,50.0167],[16.8097,50.0313],[16.807,50.0381],[16.8187,50.0445],[16.7983,50.0693],[16.8243,50.0855],[16.8047,50.109],[16.8258,50.1147],[16.8245,50.1276],[16.8323,50.1271],[16.8483,50.1651],[16.8659,50.177],[16.8621,50.201],[16.8469,50.2073],[16.8229,50.1887],[16.8122,50.191],[16.7828,50.1451],[16.7453,50.1349],[16.7239,50.1052],[16.7051,50.0964],[16.6336,50.1113],[16.5953,50.1405],[16.5693,50.1387],[16.5057,50.1649],[16.4811,50.1646],[16.4723,50.1369],[16.4349,50.1307],[16.4228,50.1261],[16.4303,50.1208],[16.4076,50.1145],[16.3939,50.1182],[16.3746,50.1008],[16.3402,50.092],[16.3574,50.0776],[16.3121,50.0608],[16.3303,50.0401],[16.2822,50.0514],[16.2477,50.0426],[16.2513,50.0527],[16.2423,50.0557],[16.2304,50.0422],[16.1951,50.0389],[16.1751,50.0594],[16.1391,50.0628],[16.1117,50.0846],[16.0751,50.0865],[16.0634,50.1128],[16.0096,50.1126],[16.0095,50.146],[15.9922,50.1461],[15.9922,50.1574],[15.9412,50.1602],[15.917,50.1707],[15.9164,50.1636],[15.8878,50.1625],[15.8873,50.1471],[15.8526,50.1477],[15.8345,50.1317],[15.8043,50.1405],[15.8043,50.168],[15.7709,50.1728]]]]}},{"type":"Feature","properties":{"name":"Kraj Vysočina"},"geometry":{"type":"MultiPolygon","coordinates":[[[[15.992,49.0308],[16.0215,49.0294],[16.0335,49.0358],[16.0333,49.0471],[16.0858,49.0308],[16.086,49.0392],[16.1177,49.0363],[16.124,49.0456],[16.1467,49.0481],[16.129,49.0577],[16.1369,49.0679],[16.211,49.0716],[16.2268,49.0837],[16.2203,49.0972],[16.2553,49.1061],[16.2037,49.1385],[16.2337,49.1361],[16.2461,49.1461],[16.2252,49.1642],[16.2329,49.1745],[16.2758,49.1841],[16.2671,49.1949],[16.2744,49.2009],[16.2349,49.2105],[16.2349,49.2255],[16.2543,49.2537],[16.2882,49.2568],[16.2553,49.2832],[16.294,49.3123],[16.2877,49.3221],[16.273,49.316],[16.2399,49.3261],[16.2731,49.3325],[16.22,49.3508],[16.237,49.3769],[16.2277,49.3941],[16.2596,49.4056],[16.2539,49.4143],[16.2674,49.4284],[16.3291,49.4313],[16.3229,49.4366],[16.3362,49.4402],[16.3257,49.4498],[16.2917,49.4469],[16.3146,49.4656],[16.3505,49.4702],[16.352,49.4485],[16.3786,49.4519],[16.3724,49.465],[16.3896,49.476],[16.3628,49.4872],[16.355,49.5022],[16.3848,49.4928],[16.4183,49.5251],[16.4084,49.5395],[16.3871,49.5376],[16.3726,49.5508],[16.3896,49.56],[16.3931,49.5785],[16.3481,49.6131],[16.2871,49.6199],[16.2698,49.6297],[16.2748,49.6401],[16.1934,49.6784],[16.1509,49.6782],[16.1395,49.6914],[16.1022,49.6836],[16.0787,49.7102],[16.0199,49.717],[16.0022,49.7393],[15.9723,49.7196],[15.9692,49.7007],[15.9536,49.7024],[15.9599,49.6913],[15.9178,49.6855],[15.9054,49.6984],[15.8701,49.7026],[15.8487,49.7185],[15.8656,49.7327],[15.8635,49.7446],[15.851,49.7366],[15.8064,49.7589],[15.775,49.7557],[15.7816,49.7804],[15.7384,49.7793],[15.7087,49.8042],[15.6892,49.8014],[15.6857,49.8108],[15.6621,49.8168],[15.6535,49.807],[15.6412,49.8059],[15.6392,49.8158],[15.5913,49.809],[15.5917,49.8182],[15.5772,49.8201],[15.5749,49.8289],[15.4969,49.8612],[15.492,49.8501],[15.4743,49.851],[15.4652,49.8387],[15.4468,49.8453],[15.4164,49.8277],[15.4187,49.8157],[15.439,49.8043],[15.4251,49.7925],[15.3822,49.7999],[15.3672,49.7757],[15.3465,49.7694],[15.3348,49.7753],[15.2995,49.7684],[15.2645,49.7509],[15.2498,49.7544],[15.2538,49.7631],[15.225,49.757],[15.2202,49.748],[15.2278,49.7423],[15.2149,49.7389],[15.2171,49.7259],[15.1822,49.7105],[15.1776,49.6964],[15.1852,49.6674],[15.2346,49.6653],[15.2494,49.6439],[15.2499,49.6301],[15.2304,49.6149],[15.171,49.6141],[15.1649,49.5889],[15.1404,49.604],[15.112,49.6045],[15.1175,49.6104],[15.0559,49.5941],[14.9818,49.606],[14.969,49.5958],[14.9933,49.5818],[14.939,49.5789],[14.9356,49.5674],[14.9464,49.5567],[14.9325,49.5574],[14.9283,49.5432],[14.9437,49.5243],[14.9021,49.5171],[14.9247,49.5037],[14.9336,49.484],[14.9175,49.4744],[14.9301,49.468],[14.9275,49.4564],[14.9125,49.4436],[14.912,49.4306],[14.9002,49.428],[14.9161,49.4249],[14.9024,49.413],[14.9063,49.405],[14.8882,49.3758],[14.933,49.3563],[14.9038,49.3331],[14.9264,49.3212],[14.9242,49.3104],[14.9478,49.3043],[14.9788,49.2772],[14.9912,49.275],[15.03,49.2966],[15.0622,49.2722],[15.1035,49.2702],[15.1008,49.249],[15.075,49.2519],[15.0991,49.2408],[15.1235,49.2479],[15.1393,49.2211],[15.1665,49.216],[15.1915,49.2365],[15.2057,49.226],[15.2573,49.2177],[15.2531,49.2065],[15.2655,49.2147],[15.3415,49.2183],[15.3509,49.1925],[15.3372,49.1668],[15.4238,49.1176],[15.4413,49.133],[15.4684,49.1196],[15.5028,49.1192],[15.5156,49.1313],[15.5359,49.1247],[15.5367,49.1355],[15.5546,49.1314],[15.5524,49.1254],[15.5675,49.1289],[15.5701,49.1166],[15.5497,49.1148],[15.5747,49.102],[15.5902,49.1044],[15.582,49.0983],[15.6039,49.0886],[15.59,49.0845],[15.5978,49.0765],[15.5532,49.0771],[15.5552,49.0611],[15.5405,49.0598],[15.5458,49.0425],[15.5249,49.037],[15.5337,49.0254],[15.5092,49.0174],[15.4873,48.9968],[15.4951,48.9892],[15.5083,48.9986],[15.5284,48.9949],[15.5234,48.9761],[15.5799,48.9659],[15.5732,48.957],[15.5861,48.9471],[15.588,48.9551],[15.6115,48.9591],[15.6238,48.9418],[15.6457,48.9376],[15.665,48.9561],[15.6604,48.9646],[15.7063,48.9678],[15.7305,48.947],[15.7424,48.9587],[15.7375,48.964],[15.7552,48.9665],[15.7581,48.9809],[15.792,48.9842],[15.8061,48.9948],[15.7981,48.9992],[15.8186,49.0109],[15.8753,49.0085],[15.8841,49.0392],[15.9172,49.0289],[15.9346,49.0388],[15.9315,49.0511],[15.9458,49.0474],[15.9613,49.0573],[15.9729,49.046],[15.9687,49.0392],[15.992,49.0308]]]]}},{"type":"Feature","properties":{"name":"Jihomoravský kraj"},"geometry":{"type":"MultiPolygon","coordinates":[[[[15.992,49.0308],[15.9687,49.0392],[15.9729,49.046],[15.9613,49.0573],[15.9458,49.0474],[15.9315,49.0511],[15.9346,49.0388],[15.9172,49.0289],[15.8841,49.0392],[15.8753,49.0085],[15.8186,49.0109],[15.7981,48.9992],[15.8061,48.9948],[15.792,48.9842],[15.7581,48.9809],[15.7552,48.9665],[15.7375,48.964],[15.7424,48.9587],[15.7305,48.947],[15.7063,48.9678],[15.6604,48.9646],[15.665,48.9561],[15.6457,48.9376],[15.6238,48.9418],[15.6119,48.959],[15.588,48.9551],[15.5796,48.9385],[15.5674,48.942],[15.5692,48.9319],[15.5581,48.9294],[15.5698,48.9277],[15.5496,48.9239],[15.5424,48.9077],[15.5781,48.8958],[15.6142,48.8977],[15.6906,48.8555],[15.7091,48.8607],[15.7537,48.8522],[15.7795,48.8749],[15.8415,48.8771],[15.8522,48.8673],[15.8427,48.8596],[15.8637,48.8524],[15.8774,48.8593],[15.8846,48.842],[15.8977,48.8484],[15.9052,48.8388],[15.8928,48.8433],[15.8932,48.8346],[15.9198,48.8388],[15.9346,48.8191],[15.9422,48.8278],[15.9584,48.8231],[15.9496,48.8053],[15.9944,48.7793],[16.1026,48.7454],[16.2786,48.7415],[16.3299,48.7312],[16.343,48.7456],[16.3598,48.7281],[16.378,48.7285],[16.435,48.7656],[16.4604,48.809],[16.5186,48.7982],[16.5408,48.8143],[16.5934,48.7827],[16.6637,48.7811],[16.6776,48.7667],[16.6735,48.7406],[16.6826,48.7278],[16.7248,48.738],[16.7473,48.7321],[16.7577,48.7168],[16.8001,48.7059],[16.8343,48.7165],[16.8694,48.7125],[16.8792,48.723],[16.902,48.718],[16.9186,48.6935],[16.9105,48.6757],[16.9233,48.6697],[16.9195,48.65],[16.9284,48.6384],[16.9188,48.6224],[16.9402,48.6165],[16.9571,48.6243],[16.9696,48.646],[16.9679,48.6686],[16.997,48.6913],[16.998,48.7092],[17.0431,48.7641],[17.0887,48.7855],[17.1113,48.8315],[17.1541,48.8448],[17.2002,48.8776],[17.3217,48.8453],[17.3613,48.8135],[17.3969,48.8133],[17.4539,48.8467],[17.5094,48.8197],[17.5191,48.8293],[17.5158,48.8181],[17.5285,48.8122],[17.5526,48.8195],[17.5546,48.8316],[17.5889,48.8252],[17.6018,48.8409],[17.6469,48.8543],[17.6348,48.8694],[17.6391,48.8783],[17.6221,48.8793],[17.6021,48.9103],[17.5382,48.9232],[17.5534,48.9431],[17.5481,48.9477],[17.5086,48.9528],[17.4988,48.9665],[17.4343,48.9504],[17.3966,48.9805],[17.3518,48.9792],[17.3623,49.0053],[17.3357,49.0156],[17.2752,49.0138],[17.2679,49.0342],[17.2516,49.0307],[17.2508,49.0386],[17.2219,49.033],[17.232,49.0645],[17.2135,49.0929],[17.1449,49.0732],[17.1098,49.0773],[17.1198,49.0859],[17.1131,49.1034],[17.1416,49.1035],[17.1486,49.1328],[17.1876,49.138],[17.2025,49.1755],[17.1957,49.1838],[17.1806,49.1729],[17.1472,49.1748],[17.165,49.19],[17.1357,49.2151],[17.1476,49.2301],[17.1298,49.2449],[17.162,49.2783],[17.1436,49.2969],[17.1409,49.3255],[17.0353,49.3594],[17.0512,49.3654],[17.0228,49.3714],[17.0243,49.4036],[17.0113,49.4058],[17.0149,49.4177],[16.9878,49.4261],[16.9874,49.4549],[16.9576,49.4689],[16.9589,49.4814],[16.9468,49.4932],[16.9362,49.4879],[16.9057,49.499],[16.8584,49.4796],[16.8976,49.4603],[16.9008,49.4518],[16.8916,49.4476],[16.9076,49.4436],[16.9157,49.429],[16.8596,49.3812],[16.7962,49.4115],[16.8003,49.4288],[16.8291,49.4364],[16.8186,49.4396],[16.8181,49.4519],[16.798,49.4563],[16.7876,49.5096],[16.8054,49.5126],[16.8073,49.5291],[16.8329,49.5323],[16.7377,49.5434],[16.7529,49.5597],[16.7426,49.5731],[16.7454,49.5874],[16.7933,49.5739],[16.8027,49.578],[16.7884,49.5917],[16.8049,49.5979],[16.7741,49.598],[16.6965,49.6264],[16.6652,49.6283],[16.6701,49.6232],[16.6506,49.6187],[16.6217,49.6333],[16.6036,49.6213],[16.5554,49.6308],[16.54,49.5897],[16.4873,49.6],[16.4459,49.5873],[16.451,49.5966],[16.4357,49.5986],[16.4171,49.5949],[16.4203,49.5853],[16.4063,49.5721],[16.3915,49.58],[16.3913,49.5624],[16.3726,49.5508],[16.3871,49.5376],[16.4084,49.5395],[16.4183,49.5251],[16.3848,49.4928],[16.355,49.5022],[16.3628,49.4872],[16.3896,49.476],[16.3724,49.465],[16.3786,49.4519],[16.352,49.4485],[16.3505,49.4702],[16.3146,49.4656],[16.2917,49.4469],[16.3257,49.4498],[16.3362,49.4402],[16.3229,49.4366],[16.3291,49.4313],[16.2674,49.4284],[16.2539,49.4143],[16.2596,49.4056],[16.2277,49.3941],[16.237,49.3769],[16.22,49.3508],[16.2731,49.3325],[16.2399,49.3261],[16.273,49.316],[16.2877,49.3221],[16.294,49.3123],[16.2553,49.2832],[16.2882,49.2568],[16.2543,49.2537],[16.2349,49.2255],[16.2349,49.2105],[16.2744,49.2009],[16.2671,49.1949],[16.2758,49.1841],[16.2329,49.1745],[16.2252,49.1642],[16.2461,49.1461],[16.2337,49.1361],[16.2037,49.1385],[16.2548,49.1054],[16.2203,49.0972],[16.2268,49.0837],[16.211,49.0716],[16.1369,49.0679],[16.129,49.0577],[16.1467,49.0481],[16.124,49.0456],[16.1177,49.0363],[16.086,49.0392],[16.0858,49.0308],[16.0333,49.0471],[16.0335,49.0358],[16.0215,49.0294],[15.992,49.0308]]]]}},{"type":"Feature","properties":{"name":"Olomoucký kraj"},"geometry":{"type":"MultiPolygon","coordinates":[[[[17.2174,49.8381],[17.225,49.8595],[17.1852,49.8444],[17.147,49.8782],[17.1752,49.911],[17.1613,49.9126],[17.1622,49.9214],[17.1899,49.9328],[17.2035,49.9494],[17.1931,49.9645],[17.1553,49.9827],[17.1737,49.9933],[17.1675,50.0112],[17.2345,50.0639],[17.2203,50.1022],[17.2493,50.121],[17.2394,50.142],[17.2588,50.1475],[17.2849,50.1731],[17.3023,50.1734],[17.3089,50.1867],[17.3485,50.1899],[17.3769,50.2229],[17.3981,50.2091],[17.4215,50.2101],[17.431,50.2635],[17.4207,50.2774],[17.3862,50.2829],[17.3661,50.2821],[17.3625,50.2643],[17.3492,50.2642],[17.3377,50.2835],[17.3482,50.2874],[17.3537,50.308],[17.3375,50.3131],[17.3487,50.3284],[17.2898,50.3175],[17.2479,50.3318],[17.2011,50.364],[17.2033,50.3864],[17.1433,50.3804],[17.1111,50.3937],[17.1107,50.405],[17.0525,50.407],[16.9983,50.4278],[16.974,50.4178],[16.9079,50.4494],[16.881,50.4423],[16.8603,50.4077],[16.911,50.389],[16.9154,50.363],[16.9375,50.3422],[16.9344,50.3299],[16.9461,50.3154],[17.0026,50.3021],[17.02,50.2783],[17.0016,50.2564],[17.0283,50.23],[16.9985,50.2159],[16.9763,50.2449],[16.956,50.2225],[16.8995,50.223],[16.8827,50.1998],[16.8628,50.1982],[16.8659,50.177],[16.8483,50.1651],[16.8323,50.1271],[16.8245,50.1276],[16.8258,50.1147],[16.8047,50.109],[16.8243,50.0855],[16.7983,50.0693],[16.8187,50.0445],[16.807,50.0381],[16.8097,50.0313],[16.7668,50.0167],[16.7683,50.0071],[16.7487,49.9947],[16.712,49.9995],[16.7353,49.9681],[16.7316,49.951],[16.7507,49.9316],[16.7459,49.9248],[16.7567,49.92],[16.7501,49.8939],[16.7691,49.8744],[16.7415,49.864],[16.736,49.8309],[16.7606,49.8183],[16.7558,49.8052],[16.7662,49.7914],[16.8013,49.7727],[16.792,49.759],[16.813,49.7485],[16.7887,49.7292],[16.8309,49.7295],[16.8475,49.7161],[16.8399,49.7059],[16.8483,49.7027],[16.8458,49.6807],[16.8038,49.6565],[16.8004,49.6392],[16.822,49.6233],[16.8115,49.6278],[16.8047,49.5969],[16.7884,49.5917],[16.8027,49.578],[16.7841,49.5726],[16.7454,49.5874],[16.7426,49.5731],[16.7529,49.5597],[16.7377,49.5434],[16.8329,49.5323],[16.8065,49.5286],[16.8054,49.5126],[16.7877,49.5097],[16.7844,49.4969],[16.798,49.4563],[16.8181,49.4519],[16.8186,49.4396],[16.8291,49.4364],[16.8003,49.4288],[16.7962,49.4115],[16.8355,49.3917],[16.8596,49.3812],[16.9157,49.4289],[16.9076,49.4436],[16.8916,49.4476],[16.9008,49.4518],[16.8976,49.4603],[16.8681,49.4695],[16.8716,49.4763],[16.8603,49.4816],[16.9057,49.499],[16.9362,49.4879],[16.9468,49.4932],[16.9589,49.4814],[16.9576,49.4689],[16.9874,49.4549],[16.9878,49.4261],[17.0149,49.4177],[17.0113,49.4058],[17.0243,49.4036],[17.0228,49.3714],[17.0512,49.3654],[17.0353,49.3594],[17.0462,49.354],[17.1396,49.3264],[17.1361,49.3153],[17.1559,49.2762],[17.1772,49.2688],[17.1785,49.2861],[17.1938,49.2973],[17.2123,49.2886],[17.255,49.3027],[17.2774,49.2955],[17.3121,49.3179],[17.3154,49.3316],[17.3567,49.3426],[17.3327,49.3803],[17.3549,49.4086],[17.3856,49.4052],[17.3747,49.3801],[17.3903,49.388],[17.4296,49.3745],[17.4499,49.3801],[17.4737,49.3547],[17.515,49.3834],[17.5144,49.3979],[17.5044,49.4012],[17.5286,49.3963],[17.581,49.4076],[17.5908,49.3973],[17.6316,49.4007],[17.6503,49.4152],[17.6232,49.4409],[17.6246,49.4497],[17.6484,49.4518],[17.6644,49.4392],[17.674,49.4613],[17.6921,49.4632],[17.72,49.4378],[17.7743,49.4373],[17.7834,49.455],[17.7777,49.458],[17.8005,49.4705],[17.7868,49.4884],[17.8389,49.5041],[17.8373,49.522],[17.8867,49.5086],[17.9006,49.5113],[17.9148,49.5293],[17.9181,49.5405],[17.9104,49.5408],[17.9025,49.5664],[17.883,49.5679],[17.8632,49.5449],[17.8533,49.5508],[17.8436,49.565],[17.8641,49.5709],[17.8638,49.5816],[17.8158,49.6217],[17.7777,49.6331],[17.7662,49.6461],[17.7728,49.652],[17.7466,49.6757],[17.7364,49.6797],[17.7233,49.6626],[17.6895,49.6769],[17.6811,49.7047],[17.6984,49.733],[17.6868,49.7318],[17.6807,49.7539],[17.654,49.7602],[17.6178,49.7552],[17.6142,49.7449],[17.5604,49.7578],[17.5431,49.7735],[17.5277,49.7706],[17.52,49.7805],[17.5249,49.7904],[17.4939,49.7988],[17.5058,49.8167],[17.4917,49.8146],[17.4833,49.8255],[17.4804,49.8386],[17.4904,49.8399],[17.4874,49.8525],[17.4727,49.8563],[17.4759,49.8737],[17.4411,49.867],[17.4567,49.8552],[17.4627,49.8324],[17.454,49.8362],[17.4379,49.8237],[17.4404,49.8322],[17.4302,49.8353],[17.4293,49.8245],[17.4103,49.8268],[17.4168,49.8146],[17.3926,49.8131],[17.3872,49.7909],[17.3563,49.8128],[17.3814,49.8486],[17.3558,49.8633],[17.265,49.835],[17.2662,49.8185],[17.2404,49.8263],[17.2158,49.8183],[17.2088,49.8265],[17.2174,49.8381]]]]}},{"type":"Feature","properties":{"name":"Moravskoslezský kraj"},"geometry":{"type":"MultiPolygon","coordinates":[[[[17.2174,49.8381],[17.2088,49.8265],[17.2158,49.8183],[17.2404,49.8263],[17.2662,49.8185],[17.265,49.835],[17.3558,49.8633],[17.3814,49.8486],[17.3563,49.8128],[17.3872,49.7909],[17.3926,49.8131],[17.4168,49.8146],[17.4103,49.8268],[17.4293,49.8245],[17.4302,49.8353],[17.4404,49.8322],[17.4379,49.8237],[17.454,49.8362],[17.4627,49.8324],[17.4567,49.8552],[17.4411,49.867],[17.4759,49.8737],[17.4727,49.8563],[17.4874,49.8525],[17.4904,49.8399],[17.4804,49.8386],[17.4833,49.8255],[17.4917,49.8146],[17.5058,49.8167],[17.4939,49.7988],[17.5249,49.7904],[17.52,49.7805],[17.5277,49.7706],[17.5431,49.7735],[17.5871,49.7497],[17.6142,49.7449],[17.6178,49.7552],[17.654,49.7602],[17.6807,49.7539],[17.6868,49.7318],[17.6984,49.733],[17.6811,49.7047],[17.6857,49.681],[17.7233,49.6626],[17.7386,49.6797],[17.7728,49.652],[17.7662,49.6461],[17.7777,49.6331],[17.7876,49.6354],[17.8382,49.6063],[17.8666,49.5761],[17.843,49.5631],[17.8625,49.5448],[17.883,49.5679],[17.9019,49.5665],[17.9105,49.5407],[17.9733,49.538],[17.9937,49.522],[17.9926,49.5045],[18.126,49.5205],[18.1361,49.5094],[18.1636,49.5171],[18.2033,49.489],[18.2538,49.4825],[18.2677,49.4929],[18.3012,49.4899],[18.3071,49.4649],[18.3214,49.4514],[18.3496,49.4467],[18.3663,49.4331],[18.3732,49.4212],[18.3663,49.4055],[18.4037,49.3967],[18.45,49.3935],[18.4757,49.4085],[18.4941,49.4282],[18.49,49.4332],[18.548,49.4679],[18.5345,49.49],[18.5531,49.5032],[18.5973,49.5102],[18.6028,49.4971],[18.6177,49.4951],[18.6783,49.5076],[18.7545,49.4884],[18.8081,49.5153],[18.8509,49.5171],[18.8372,49.5236],[18.8575,49.5379],[18.8593,49.5506],[18.8332,49.5734],[18.8391,49.5953],[18.8247,49.6002],[18.8046,49.6789],[18.7806,49.6854],[18.741,49.6765],[18.7171,49.6835],[18.7096,49.7045],[18.6682,49.7034],[18.6252,49.7224],[18.6292,49.7472],[18.6136,49.7548],[18.593,49.8017],[18.5689,49.8292],[18.5897,49.8459],[18.5837,49.8523],[18.6057,49.8616],[18.5696,49.8734],[18.566,49.8832],[18.5801,49.9055],[18.5729,49.9216],[18.5394,49.9257],[18.5471,49.9092],[18.5237,49.8995],[18.4909,49.9034],[18.4629,49.9225],[18.4329,49.9282],[18.4308,49.9382],[18.3767,49.9356],[18.333,49.9494],[18.3501,49.9298],[18.3304,49.9306],[18.3179,49.9157],[18.2792,49.9401],[18.2763,49.9646],[18.2143,49.972],[18.2066,49.9979],[18.1731,50.0003],[18.169,49.9865],[18.1551,49.9824],[18.1341,49.9975],[18.1159,49.9947],[18.0947,50.0121],[18.1031,50.0226],[18.0856,50.032],[18.0894,50.0441],[18.0336,50.066],[18.0052,50.0535],[18.0043,50.0378],[18.0131,50.0302],[18.0247,50.0388],[18.0444,50.0366],[18.0455,50.0051],[18.0075,50.0107],[18.0046,50.0184],[17.9833,50.0051],[17.954,50.0051],[17.9179,49.9778],[17.8685,49.9725],[17.8264,49.994],[17.8369,50.0036],[17.8277,50.0113],[17.7773,50.0203],[17.7716,50.0484],[17.749,50.0788],[17.7293,50.0881],[17.7309,50.0972],[17.6969,50.117],[17.6833,50.1173],[17.6767,50.103],[17.6503,50.1108],[17.6403,50.1307],[17.6109,50.14],[17.5927,50.1599],[17.6047,50.171],[17.7047,50.1849],[17.7174,50.2057],[17.7585,50.2066],[17.765,50.2364],[17.7249,50.2567],[17.7261,50.2732],[17.752,50.2995],[17.7288,50.3033],[17.721,50.3192],[17.6927,50.327],[17.686,50.299],[17.6173,50.2669],[17.5919,50.279],[17.5638,50.2703],[17.4562,50.2697],[17.4545,50.2565],[17.4297,50.2542],[17.4215,50.2101],[17.3981,50.2091],[17.3769,50.2229],[17.3485,50.1899],[17.3089,50.1867],[17.3023,50.1734],[17.2849,50.1731],[17.2588,50.1475],[17.2394,50.142],[17.2493,50.121],[17.2203,50.1022],[17.2345,50.0639],[17.1675,50.0112],[17.1737,49.9933],[17.1552,49.983],[17.1931,49.9645],[17.2035,49.9494],[17.1899,49.9328],[17.1622,49.9214],[17.1613,49.9126],[17.1752,49.911],[17.1465,49.8808],[17.1852,49.8444],[17.225,49.8595],[17.2174,49.8381]]]]}},{"type":"Feature","properties":{"name":"Zlínský kraj"},"geometry":{"type":"MultiPolygon","coordinates":[[[[17.1717,49.0828],[17.2135,49.0929],[17.232,49.0645],[17.2215,49.0333],[17.2508,49.0386],[17.2516,49.0307],[17.2679,49.0342],[17.2752,49.0138],[17.3357,49.0156],[17.3623,49.0053],[17.3566,48.9773],[17.3966,48.9805],[17.4343,48.9504],[17.4988,48.9665],[17.5086,48.9528],[17.5481,48.9477],[17.5534,48.9431],[17.5382,48.9232],[17.6021,48.9103],[17.6221,48.8793],[17.6391,48.8783],[17.6348,48.8694],[17.6469,48.8543],[17.7033,48.86],[17.7827,48.9167],[17.7813,48.9253],[17.8854,48.9277],[17.9139,49.0109],[17.9243,49.02],[17.9909,49.0285],[18.0245,49.0212],[18.0571,49.0285],[18.0819,49.0461],[18.1157,49.0907],[18.1103,49.1135],[18.1222,49.118],[18.1067,49.1342],[18.1367,49.161],[18.1308,49.1888],[18.1549,49.2162],[18.1563,49.2295],[18.1444,49.2292],[18.1472,49.2484],[18.1843,49.2698],[18.184,49.287],[18.3657,49.3244],[18.4156,49.3676],[18.4037,49.3967],[18.3663,49.4055],[18.3732,49.4212],[18.3663,49.4331],[18.3071,49.4649],[18.3012,49.4899],[18.2677,49.4929],[18.2538,49.4825],[18.2033,49.489],[18.1636,49.5171],[18.1361,49.5094],[18.126,49.5205],[17.9979,49.5035],[17.9925,49.5234],[17.9567,49.5398],[17.9168,49.5382],[17.9006,49.5113],[17.8867,49.5086],[17.8401,49.5232],[17.8389,49.5041],[17.7868,49.4884],[17.8005,49.4705],[17.7777,49.458],[17.7834,49.455],[17.775,49.4376],[17.72,49.4378],[17.6921,49.4632],[17.674,49.4613],[17.6644,49.4392],[17.6484,49.4518],[17.6246,49.4497],[17.6232,49.4409],[17.6503,49.4152],[17.6316,49.4007],[17.5908,49.3973],[17.581,49.4076],[17.5286,49.3963],[17.5044,49.4012],[17.5144,49.3979],[17.515,49.3834],[17.4737,49.3547],[17.4499,49.3801],[17.4296,49.3745],[17.3903,49.388],[17.3747,49.3801],[17.3856,49.4052],[17.3549,49.4086],[17.3327,49.3803],[17.3567,49.3426],[17.3154,49.3316],[17.3121,49.3179],[17.2774,49.2955],[17.255,49.3027],[17.2123,49.2886],[17.1938,49.2973],[17.1785,49.2861],[17.1772,49.2688],[17.1591,49.2752],[17.1304,49.2463],[17.1476,49.2301],[17.1357,49.2151],[17.165,49.19],[17.1472,49.1748],[17.1806,49.1729],[17.1957,49.1838],[17.2025,49.1755],[17.1876,49.138],[17.1486,49.1328],[17.1416,49.1035],[17.1131,49.1034],[17.1198,49.0859],[17.1097,49.0774],[17.1449,49.0732],[17.1717,49.0828]]]]}}]}